CCSDS_OMM_VERS = 2.0
CREATION_DATE  = 
ORIGINATOR     = 

OBJECT_NAME    = HULIANWANG DIGUI 13J
OBJECT_ID      = 2025-258J
CENTER_NAME    = EARTH
REF_FRAME      = TEME
TIME_SYSTEM    = UTC
MEAN_ELEMENT_THEORY = SGP/SGP4

EPOCH          = 2025-11-22T08:19:04.011744
MEAN_MOTION    = 14.26346428
ECCENTRICITY   = .00109393
INCLINATION    = 50.0028
RA_OF_ASC_NODE = 347.7517
ARG_OF_PERICENTER = 293.8228
MEAN_ANOMALY   = 66.1539

EPHEMERIS_TYPE = 0
CLASSIFICATION_TYPE = U
NORAD_CAT_ID   = 66420
ELEMENT_SET_NO = 999
REV_AT_EPOCH   = 174
BSTAR          = -.4779134E-5
MEAN_MOTION_DOT = -.172E-5
MEAN_MOTION_DDOT = 0

CCSDS_OMM_VERS = 2.0
CREATION_DATE  = 
ORIGINATOR     = 

OBJECT_NAME    = CZ-12 R/B
OBJECT_ID      = 2025-258K
CENTER_NAME    = EARTH
REF_FRAME      = TEME
TIME_SYSTEM    = UTC
MEAN_ELEMENT_THEORY = SGP/SGP4

EPOCH          = 2025-11-22T13:23:48.335712
MEAN_MOTION    = 14.42311371
ECCENTRICITY   = .00645824
INCLINATION    = 49.9957
RA_OF_ASC_NODE = 345.5215
ARG_OF_PERICENTER = 176.8901
MEAN_ANOMALY   = 183.2433

EPHEMERIS_TYPE = 0
CLASSIFICATION_TYPE = U
NORAD_CAT_ID   = 66421
ELEMENT_SET_NO = 999
REV_AT_EPOCH   = 180
BSTAR          = .24277474E-4
MEAN_MOTION_DOT = -.89E-6
MEAN_MOTION_DDOT = 0

CCSDS_OMM_VERS = 2.0
CREATION_DATE  = 
ORIGINATOR     = 

OBJECT_NAME    = STARLINK-35617
OBJECT_ID      = 2025-259A
CENTER_NAME    = EARTH
REF_FRAME      = TEME
TIME_SYSTEM    = UTC
MEAN_ELEMENT_THEORY = SGP/SGP4

EPOCH          = 2025-11-22T10:48:21.841920
MEAN_MOTION    = 15.81753979
ECCENTRICITY   = .00056471
INCLINATION    = 42.9970
RA_OF_ASC_NODE = 167.5413
ARG_OF_PERICENTER = 228.6838
MEAN_ANOMALY   = 131.3548

EPHEMERIS_TYPE = 0
CLASSIFICATION_TYPE = U
NORAD_CAT_ID   = 66422
ELEMENT_SET_NO = 999
REV_AT_EPOCH   = 300
BSTAR          = .138296E-2
MEAN_MOTION_DOT = .297431E-2
MEAN_MOTION_DDOT = 0

CCSDS_OMM_VERS = 2.0
CREATION_DATE  = 
ORIGINATOR     = 

OBJECT_NAME    = STARLINK-35618
OBJECT_ID      = 2025-259B
CENTER_NAME    = EARTH
REF_FRAME      = TEME
TIME_SYSTEM    = UTC
MEAN_ELEMENT_THEORY = SGP/SGP4

EPOCH          = 2025-11-22T12:18:18.500832
MEAN_MOTION    = 15.81360377
ECCENTRICITY   = .00061125
INCLINATION    = 42.9973
RA_OF_ASC_NODE = 167.1492
ARG_OF_PERICENTER = 307.7684
MEAN_ANOMALY   = 52.2633

EPHEMERIS_TYPE = 0
CLASSIFICATION_TYPE = U
NORAD_CAT_ID   = 66423
ELEMENT_SET_NO = 999
REV_AT_EPOCH   = 301
BSTAR          = -.96649148E-2
MEAN_MOTION_DOT = -.1713402E-1
MEAN_MOTION_DDOT = 0

CCSDS_OMM_VERS = 2.0
CREATION_DATE  = 
ORIGINATOR     = 

OBJECT_NAME    = STARLINK-35588
OBJECT_ID      = 2025-259C
CENTER_NAME    = EARTH
REF_FRAME      = TEME
TIME_SYSTEM    = UTC
MEAN_ELEMENT_THEORY = SGP/SGP4

EPOCH          = 2025-11-22T10:46:57.963936
MEAN_MOTION    = 15.82910756
ECCENTRICITY   = .0001795
INCLINATION    = 42.9973
RA_OF_ASC_NODE = 167.5344
ARG_OF_PERICENTER = 260.8800
MEAN_ANOMALY   = 99.1869

EPHEMERIS_TYPE = 0
CLASSIFICATION_TYPE = U
NORAD_CAT_ID   = 66424
ELEMENT_SET_NO = 999
REV_AT_EPOCH   = 300
BSTAR          = .21299539E-2
MEAN_MOTION_DOT = .494874E-2
MEAN_MOTION_DDOT = 0

CCSDS_OMM_VERS = 2.0
CREATION_DATE  = 
ORIGINATOR     = 

OBJECT_NAME    = STARLINK-35555
OBJECT_ID      = 2025-259D
CENTER_NAME    = EARTH
REF_FRAME      = TEME
TIME_SYSTEM    = UTC
MEAN_ELEMENT_THEORY = SGP/SGP4

EPOCH          = 2025-11-22T12:17:10.617216
MEAN_MOTION    = 15.81319507
ECCENTRICITY   = .00061368
INCLINATION    = 42.9968
RA_OF_ASC_NODE = 167.1413
ARG_OF_PERICENTER = 311.3966
MEAN_ANOMALY   = 48.6378

EPHEMERIS_TYPE = 0
CLASSIFICATION_TYPE = U
NORAD_CAT_ID   = 66425
ELEMENT_SET_NO = 999
REV_AT_EPOCH   = 301
BSTAR          = -.10032522E-1
MEAN_MOTION_DOT = -.180455E-1
MEAN_MOTION_DDOT = 0

CCSDS_OMM_VERS = 2.0
CREATION_DATE  = 
ORIGINATOR     = 

OBJECT_NAME    = STARLINK-35589
OBJECT_ID      = 2025-259E
CENTER_NAME    = EARTH
REF_FRAME      = TEME
TIME_SYSTEM    = UTC
MEAN_ELEMENT_THEORY = SGP/SGP4

EPOCH          = 2025-11-22T13:47:39.491232
MEAN_MOTION    = 15.81310359
ECCENTRICITY   = .00043389
INCLINATION    = 42.9973
RA_OF_ASC_NODE = 166.7533
ARG_OF_PERICENTER = 241.0391
MEAN_ANOMALY   = 119.0046

EPHEMERIS_TYPE = 0
CLASSIFICATION_TYPE = U
NORAD_CAT_ID   = 66426
ELEMENT_SET_NO = 999
REV_AT_EPOCH   = 302
BSTAR          = -.1002962E-1
MEAN_MOTION_DOT = -.1801017E-1
MEAN_MOTION_DDOT = 0

CCSDS_OMM_VERS = 2.0
CREATION_DATE  = 
ORIGINATOR     = 

OBJECT_NAME    = STARLINK-35611
OBJECT_ID      = 2025-259F
CENTER_NAME    = EARTH
REF_FRAME      = TEME
TIME_SYSTEM    = UTC
MEAN_ELEMENT_THEORY = SGP/SGP4

EPOCH          = 2025-11-22T12:16:15.773952
MEAN_MOTION    = 15.82728026
ECCENTRICITY   = .00014497
INCLINATION    = 42.9971
RA_OF_ASC_NODE = 167.1368
ARG_OF_PERICENTER = 282.0374
MEAN_ANOMALY   = 78.0336

EPHEMERIS_TYPE = 0
CLASSIFICATION_TYPE = U
NORAD_CAT_ID   = 66427
ELEMENT_SET_NO = 999
REV_AT_EPOCH   = 301
BSTAR          = .24170696E-2
MEAN_MOTION_DOT = .561225E-2
MEAN_MOTION_DDOT = 0

CCSDS_OMM_VERS = 2.0
CREATION_DATE  = 
ORIGINATOR     = 

OBJECT_NAME    = STARLINK-35610
OBJECT_ID      = 2025-259G
CENTER_NAME    = EARTH
REF_FRAME      = TEME
TIME_SYSTEM    = UTC
MEAN_ELEMENT_THEORY = SGP/SGP4

EPOCH          = 2025-11-22T12:15:28.329120
MEAN_MOTION    = 15.81260714
ECCENTRICITY   = .00082559
INCLINATION    = 42.9970
RA_OF_ASC_NODE = 167.1320
ARG_OF_PERICENTER = 316.7865
MEAN_ANOMALY   = 43.2358

EPHEMERIS_TYPE = 0
CLASSIFICATION_TYPE = U
NORAD_CAT_ID   = 66428
ELEMENT_SET_NO = 999
REV_AT_EPOCH   = 301
BSTAR          = -.10672602E-1
MEAN_MOTION_DOT = -.1903962E-1
MEAN_MOTION_DDOT = 0

CCSDS_OMM_VERS = 2.0
CREATION_DATE  = 
ORIGINATOR     = 

OBJECT_NAME    = STARLINK-35533
OBJECT_ID      = 2025-259H
CENTER_NAME    = EARTH
REF_FRAME      = TEME
TIME_SYSTEM    = UTC
MEAN_ELEMENT_THEORY = SGP/SGP4

EPOCH          = 2025-11-22T10:44:07.946016
MEAN_MOTION    = 15.82796620
ECCENTRICITY   = .00025591
INCLINATION    = 42.9964
RA_OF_ASC_NODE = 167.5160
ARG_OF_PERICENTER = 338.7664
MEAN_ANOMALY   = 21.3101

EPHEMERIS_TYPE = 0
CLASSIFICATION_TYPE = U
NORAD_CAT_ID   = 66429
ELEMENT_SET_NO = 999
REV_AT_EPOCH   = 300
BSTAR          = .22285604E-2
MEAN_MOTION_DOT = .516324E-2
MEAN_MOTION_DDOT = 0

CCSDS_OMM_VERS = 2.0
CREATION_DATE  = 
ORIGINATOR     = 

OBJECT_NAME    = STARLINK-35470
OBJECT_ID      = 2025-259J
CENTER_NAME    = EARTH
REF_FRAME      = TEME
TIME_SYSTEM    = UTC
MEAN_ELEMENT_THEORY = SGP/SGP4

EPOCH          = 2025-11-22T12:14:32.488800
MEAN_MOTION    = 15.82480176
ECCENTRICITY   = .00014374
INCLINATION    = 42.9973
RA_OF_ASC_NODE = 167.1270
ARG_OF_PERICENTER = 263.0764
MEAN_ANOMALY   = 96.9944

EPHEMERIS_TYPE = 0
CLASSIFICATION_TYPE = U
NORAD_CAT_ID   = 66430
ELEMENT_SET_NO = 999
REV_AT_EPOCH   = 301
BSTAR          = .20284449E-2
MEAN_MOTION_DOT = .459958E-2
MEAN_MOTION_DDOT = 0

CCSDS_OMM_VERS = 2.0
CREATION_DATE  = 
ORIGINATOR     = 

OBJECT_NAME    = STARLINK-35439
OBJECT_ID      = 2025-259K
CENTER_NAME    = EARTH
REF_FRAME      = TEME
TIME_SYSTEM    = UTC
MEAN_ELEMENT_THEORY = SGP/SGP4

EPOCH          = 2025-11-22T00:06:49.410720
MEAN_MOTION    = 15.82663667
ECCENTRICITY   = .00021154
INCLINATION    = 42.9976
RA_OF_ASC_NODE = 170.2174
ARG_OF_PERICENTER = 256.5015
MEAN_ANOMALY   = 103.5622

EPHEMERIS_TYPE = 0
CLASSIFICATION_TYPE = U
NORAD_CAT_ID   = 66431
ELEMENT_SET_NO = 999
REV_AT_EPOCH   = 293
BSTAR          = -.28971205E-2
MEAN_MOTION_DOT = -.588707E-2
MEAN_MOTION_DDOT = 0

CCSDS_OMM_VERS = 2.0
CREATION_DATE  = 
ORIGINATOR     = 

OBJECT_NAME    = STARLINK-35446
OBJECT_ID      = 2025-259L
CENTER_NAME    = EARTH
REF_FRAME      = TEME
TIME_SYSTEM    = UTC
MEAN_ELEMENT_THEORY = SGP/SGP4

EPOCH          = 2025-11-22T10:42:25.219872
MEAN_MOTION    = 15.82681349
ECCENTRICITY   = .00016675
INCLINATION    = 42.9966
RA_OF_ASC_NODE = 167.5057
ARG_OF_PERICENTER = 263.9967
MEAN_ANOMALY   = 96.0715

EPHEMERIS_TYPE = 0
CLASSIFICATION_TYPE = U
NORAD_CAT_ID   = 66432
ELEMENT_SET_NO = 999
REV_AT_EPOCH   = 300
BSTAR          = .1934541E-2
MEAN_MOTION_DOT = .441853E-2
MEAN_MOTION_DDOT = 0

CCSDS_OMM_VERS = 2.0
CREATION_DATE  = 
ORIGINATOR     = 

OBJECT_NAME    = STARLINK-35457
OBJECT_ID      = 2025-259M
CENTER_NAME    = EARTH
REF_FRAME      = TEME
TIME_SYSTEM    = UTC
MEAN_ELEMENT_THEORY = SGP/SGP4

EPOCH          = 2025-11-22T10:41:41.326080
MEAN_MOTION    = 15.82956750
ECCENTRICITY   = .00102966
INCLINATION    = 42.9960
RA_OF_ASC_NODE = 167.5030
ARG_OF_PERICENTER = 253.0100
MEAN_ANOMALY   = 106.9644

EPHEMERIS_TYPE = 0
CLASSIFICATION_TYPE = U
NORAD_CAT_ID   = 66433
ELEMENT_SET_NO = 999
REV_AT_EPOCH   = 300
BSTAR          = .20900413E-2
MEAN_MOTION_DOT = .487377E-2
MEAN_MOTION_DDOT = 0

CCSDS_OMM_VERS = 2.0
CREATION_DATE  = 
ORIGINATOR     = 

OBJECT_NAME    = STARLINK-35389
OBJECT_ID      = 2025-259N
CENTER_NAME    = EARTH
REF_FRAME      = TEME
TIME_SYSTEM    = UTC
MEAN_ELEMENT_THEORY = SGP/SGP4

EPOCH          = 2025-11-22T12:12:06.993792
MEAN_MOTION    = 15.81072212
ECCENTRICITY   = .00055934
INCLINATION    = 42.9977
RA_OF_ASC_NODE = 167.1122
ARG_OF_PERICENTER = 302.5009
MEAN_ANOMALY   = 57.5322

EPHEMERIS_TYPE = 0
CLASSIFICATION_TYPE = U
NORAD_CAT_ID   = 66434
ELEMENT_SET_NO = 999
REV_AT_EPOCH   = 301
BSTAR          = -.10249804E-1
MEAN_MOTION_DOT = -.1819391E-1
MEAN_MOTION_DDOT = 0

